[{"OBJECT_NAME":"STARLINK-11139 [DTC]","OBJECT_ID":"2024-141E","EPOCH":"2026-03-09T11:24:27.730944","MEAN_MOTION":15.69708919,"ECCENTRICITY":0.00018639,"INCLINATION":53.1596,"RA_OF_ASC_NODE":87.0013,"ARG_OF_PERICENTER":48.1173,"MEAN_ANOMALY":312.0004,"EPHEMERIS_TYPE":0,"CLASSIFICATION_TYPE":"U","NORAD_CAT_ID":60402,"ELEMENT_SET_NO":999,"REV_AT_EPOCH":9171,"BSTAR":2.646576e-6,"MEAN_MOTION_DOT":-2.69e-6,"MEAN_MOTION_DDOT":0},{"OBJECT_NAME":"PSLV R\/B","OBJECT_ID":"2014-017B","EPOCH":"2026-03-07T18:34:04.160064","MEAN_MOTION":4.44837019,"ECCENTRICITY":0.57265298,"INCLINATION":19.1005,"RA_OF_ASC_NODE":308.0309,"ARG_OF_PERICENTER":306.3141,"MEAN_ANOMALY":13.3966,"EPHEMERIS_TYPE":0,"CLASSIFICATION_TYPE":"U","NORAD_CAT_ID":39636,"ELEMENT_SET_NO":999,"REV_AT_EPOCH":17952,"BSTAR":0.00083002583,"MEAN_MOTION_DOT":3.764e-5,"MEAN_MOTION_DDOT":0}]
